{
  "type": "FeatureCollection",
  "features": [
    {
      "type": "Feature",
      "properties": {
        "norad_id": 38064,
        "name": "COSMOS 2251 DEB",
        "group": "cosmos-2251-debris",
        "lat": -39.04177997923482,
        "lon": -30.78598010153888,
        "alt_km": 684.0057402351904,
        "timestamp": "2025-12-06T14:35:37.524190+00:00",
        "meta_object_name": "COSMOS 2251 DEB",
        "meta_object_id": "1993-036BRW",
        "meta_epoch": "2025-12-06T03:41:10.507776",
        "meta_mean_motion": 14.56211496,
        "meta_eccentricity": 0.0047617,
        "meta_inclination": 74.0214,
        "meta_ra_of_asc_node": 136.6396,
        "meta_arg_of_pericenter": 257.304,
        "meta_mean_anomaly": 102.2798,
        "meta_ephemeris_type": 0,
        "meta_classification_type": "U",
        "meta_norad_cat_id": 38064,
        "meta_element_set_no": 999,
        "meta_rev_at_epoch": 71769,
        "meta_bstar": 0.001701891,
        "meta_mean_motion_dot": 7.617e-05,
        "meta_mean_motion_ddot": 0,
        "tle_line1": "1 38064U 93036BRW 25340.15359384  .00007617  00000+0  17019-2 0  9994",
        "tle_line2": "2 38064  74.0214 136.6396 0047617 257.3040 102.2798 14.56211496717699"
      },
      "geometry": {
        "type": "Point",
        "coordinates": [
          -30.78598010153888,
          -39.04177997923482
        ]
      }
    },
    {
      "type": "Feature",
      "properties": {
        "norad_id": 38067,
        "name": "COSMOS 2251 DEB",
        "group": "cosmos-2251-debris",
        "lat": 73.38465592589688,
        "lon": 32.40496974972739,
        "alt_km": 635.9825904562458,
        "timestamp": "2025-12-06T14:35:37.524200+00:00",
        "meta_object_name": "COSMOS 2251 DEB",
        "meta_object_id": "1993-036BRZ",
        "meta_epoch": "2025-11-29T04:46:36.876288",
        "meta_mean_motion": 14.61044936,
        "meta_eccentricity": 0.00691529,
        "meta_inclination": 74.017,
        "meta_ra_of_asc_node": 300.4181,
        "meta_arg_of_pericenter": 91.9303,
        "meta_mean_anomaly": 288.2542,
        "meta_ephemeris_type": 0,
        "meta_classification_type": "U",
        "meta_norad_cat_id": 38067,
        "meta_element_set_no": 999,
        "meta_rev_at_epoch": 62358,
        "meta_bstar": 0.00037425936,
        "meta_mean_motion_dot": 1.87e-05,
        "meta_mean_motion_ddot": 0,
        "tle_line1": "1 38067U 93036BRZ 25333.19903792  .00001870  00000+0  37426-3 0  9991",
        "tle_line2": "2 38067  74.0170 300.4181 0069152  91.9303 288.2542 14.61044936623583"
      },
      "geometry": {
        "type": "Point",
        "coordinates": [
          32.40496974972739,
          73.38465592589688
        ]
      }
    },
    {
      "type": "Feature",
      "properties": {
        "norad_id": 38068,
        "name": "COSMOS 2251 DEB",
        "group": "cosmos-2251-debris",
        "lat": 49.43453677408512,
        "lon": -20.93378583840503,
        "alt_km": 749.7590762292148,
        "timestamp": "2025-12-06T14:35:37.524209+00:00",
        "meta_object_name": "COSMOS 2251 DEB",
        "meta_object_id": "1993-036BSA",
        "meta_epoch": "2025-11-26T00:12:22.263264",
        "meta_mean_motion": 14.35960004,
        "meta_eccentricity": 0.00240903,
        "meta_inclination": 74.0219,
        "meta_ra_of_asc_node": 338.9788,
        "meta_arg_of_pericenter": 72.1007,
        "meta_mean_anomaly": 288.2769,
        "meta_ephemeris_type": 0,
        "meta_classification_type": "U",
        "meta_norad_cat_id": 38068,
        "meta_element_set_no": 999,
        "meta_rev_at_epoch": 66406,
        "meta_bstar": 0.00028750999,
        "meta_mean_motion_dot": 8.11e-06,
        "meta_mean_motion_ddot": 0,
        "tle_line1": "1 38068U 93036BSA 25330.00859101  .00000811  00000+0  28751-3 0  9998",
        "tle_line2": "2 38068  74.0219 338.9788 0024090  72.1007 288.2769 14.35960004664064"
      },
      "geometry": {
        "type": "Point",
        "coordinates": [
          -20.93378583840503,
          49.43453677408512
        ]
      }
    },
    {
      "type": "Feature",
      "properties": {
        "norad_id": 38197,
        "name": "COSMOS 2251 DEB",
        "group": "cosmos-2251-debris",
        "lat": -65.68196512716868,
        "lon": -30.51553995058883,
        "alt_km": 588.1927626304305,
        "timestamp": "2025-12-06T14:35:37.524219+00:00",
        "meta_object_name": "COSMOS 2251 DEB",
        "meta_object_id": "1993-036BSM",
        "meta_epoch": "2025-12-03T10:19:00.710112",
        "meta_mean_motion": 14.73077907,
        "meta_eccentricity": 0.01286379,
        "meta_inclination": 73.9396,
        "meta_ra_of_asc_node": 15.3185,
        "meta_arg_of_pericenter": 255.0006,
        "meta_mean_anomaly": 103.6899,
        "meta_ephemeris_type": 0,
        "meta_classification_type": "U",
        "meta_norad_cat_id": 38197,
        "meta_element_set_no": 999,
        "meta_rev_at_epoch": 85618,
        "meta_bstar": 0.0059536549,
        "meta_mean_motion_dot": 0.00043936,
        "meta_mean_motion_ddot": 0,
        "tle_line1": "1 38197U 93036BSM 25337.42986933  .00043936  00000+0  59537-2 0  9998",
        "tle_line2": "2 38197  73.9396  15.3185 0128637 255.0006 103.6899 14.73077907856184"
      },
      "geometry": {
        "type": "Point",
        "coordinates": [
          -30.51553995058883,
          -65.68196512716868
        ]
      }
    },
    {
      "type": "Feature",
      "properties": {
        "norad_id": 38199,
        "name": "COSMOS 2251 DEB",
        "group": "cosmos-2251-debris",
        "lat": -39.73936323712023,
        "lon": 58.421418963094425,
        "alt_km": 815.800712702774,
        "timestamp": "2025-12-06T14:35:37.524231+00:00",
        "meta_object_name": "COSMOS 2251 DEB",
        "meta_object_id": "1993-036BSP",
        "meta_epoch": "2025-12-05T22:57:07.005312",
        "meta_mean_motion": 13.64781865,
        "meta_eccentricity": 0.03693495,
        "meta_inclination": 73.9556,
        "meta_ra_of_asc_node": 73.3332,
        "meta_arg_of_pericenter": 1.1874,
        "meta_mean_anomaly": 359.0029,
        "meta_ephemeris_type": 0,
        "meta_classification_type": "U",
        "meta_norad_cat_id": 38199,
        "meta_element_set_no": 999,
        "meta_rev_at_epoch": 60929,
        "meta_bstar": 0.00068025629,
        "meta_mean_motion_dot": 8.5e-06,
        "meta_mean_motion_ddot": 0,
        "tle_line1": "1 38199U 93036BSP 25339.95633108  .00000850  00000+0  68026-3 0  9995",
        "tle_line2": "2 38199  73.9556  73.3332 0369349   1.1874 359.0029 13.64781865609296"
      },
      "geometry": {
        "type": "Point",
        "coordinates": [
          58.421418963094425,
          -39.73936323712023
        ]
      }
    },
    {
      "type": "Feature",
      "properties": {
        "norad_id": 38208,
        "name": "COSMOS 2251 DEB",
        "group": "cosmos-2251-debris",
        "lat": 17.58832346735936,
        "lon": 96.29871152641294,
        "alt_km": 620.5301586615778,
        "timestamp": "2025-12-06T14:35:37.524241+00:00",
        "meta_object_name": "COSMOS 2251 DEB",
        "meta_object_id": "1993-036BSY",
        "meta_epoch": "2025-12-05T14:19:12.971424",
        "meta_mean_motion": 14.83431595,
        "meta_eccentricity": 0.00033607,
        "meta_inclination": 74.0074,
        "meta_ra_of_asc_node": 93.0882,
        "meta_arg_of_pericenter": 176.5145,
        "meta_mean_anomaly": 202.8392,
        "meta_ephemeris_type": 0,
        "meta_classification_type": "U",
        "meta_norad_cat_id": 38208,
        "meta_element_set_no": 999,
        "meta_rev_at_epoch": 71053,
        "meta_bstar": 0.0048604025,
        "meta_mean_motion_dot": 0.00040129,
        "meta_mean_motion_ddot": 0,
        "tle_line1": "1 38208U 93036BSY 25339.59667791  .00040129  00000+0  48604-2 0  9993",
        "tle_line2": "2 38208  74.0074  93.0882 0003360 176.5145 202.8392 14.83431595710531"
      },
      "geometry": {
        "type": "Point",
        "coordinates": [
          96.29871152641294,
          17.58832346735936
        ]
      }
    },
    {
      "type": "Feature",
      "properties": {
        "norad_id": 38212,
        "name": "COSMOS 2251 DEB",
        "group": "cosmos-2251-debris",
        "lat": 70.49996528129745,
        "lon": -145.22719522014887,
        "alt_km": 592.8391782342251,
        "timestamp": "2025-12-06T14:35:37.524251+00:00",
        "meta_object_name": "COSMOS 2251 DEB",
        "meta_object_id": "1993-036BTC",
        "meta_epoch": "2025-12-06T01:08:07.179648",
        "meta_mean_motion": 14.77609571,
        "meta_eccentricity": 0.00929618,
        "meta_inclination": 74.0526,
        "meta_ra_of_asc_node": 89.7222,
        "meta_arg_of_pericenter": 158.629,
        "meta_mean_anomaly": 201.8809,
        "meta_ephemeris_type": 0,
        "meta_classification_type": "U",
        "meta_norad_cat_id": 38212,
        "meta_element_set_no": 999,
        "meta_rev_at_epoch": 81211,
        "meta_bstar": 0.00094935233,
        "meta_mean_motion_dot": 7.267e-05,
        "meta_mean_motion_ddot": 0,
        "tle_line1": "1 38212U 93036BTC 25340.04730532  .00007267  00000+0  94935-3 0  9999",
        "tle_line2": "2 38212  74.0526  89.7222 0092961 158.6290 201.8809 14.77609571812118"
      },
      "geometry": {
        "type": "Point",
        "coordinates": [
          -145.22719522014887,
          70.49996528129745
        ]
      }
    }
  ]
}